CTC2_L_00300001-01
1 43449U 24516H   26070.40846065  .00000000  00000+0  00000-0 0  9999
2 43449  40.0000   0.0000 0000000   0.0000   0.0000 13.72670257    11
CTC2_L_00300001-02
1 43450U 22110ML  26070.40846065  .00000000  00000+0  00000-0 0  9999
2 43450  40.0000   0.0000 0000000   0.0000  90.0000 13.72670257    12
CTC2_L_00300001-03
1 43451U 26122ID  26070.40846065  .00000000  00000+0  00000-0 0  9997
2 43451  40.0000   0.0000 0000000   0.0000 180.0000 13.72670257    13
CTC2_L_00300001-04
1 43452U 26454RK  26070.40846065  .00000000  00000+0  00000-0 0  9996
2 43452  40.0000   0.0000 0000000   0.0000 270.0000 13.72670257    14
CTC2_L_00300002-01
1 43453U 24579KS  26070.40846065  .00000000  00000+0  00000-0 0  9993
2 43453  40.0000  12.0000 0000000   0.0000  12.0000 13.72670257    12
CTC2_L_00300002-02
1 43454U 22181DP  26070.40846065  .00000000  00000+0  00000-0 0  9991
2 43454  40.0000  12.0000 0000000   0.0000 102.0000 13.72670257    13
CTC2_L_00300002-03
1 43455U 25764DO  26070.40846065  .00000000  00000+0  00000-0 0  9992
2 43455  40.0000  12.0000 0000000   0.0000 192.0000 13.72670257    13
CTC2_L_00300002-04
1 43456U 23093MM  26070.40846065  .00000000  00000+0  00000-0 0  9996
2 43456  40.0000  12.0000 0000000   0.0000 282.0000 13.72670257    14
CTC2_L_00300003-01
1 43457U 23711S   26070.40846065  .00000000  00000+0  00000-0 0  9994
2 43457  40.0000  24.0000 0000000   0.0000  24.0000 13.72670257    12
CTC2_L_00300003-02
1 43458U 22557DO  26070.40846065  .00000000  00000+0  00000-0 0  9992
2 43458  40.0000  24.0000 0000000   0.0000 114.0000 13.72670257    13
CTC2_L_00300003-03
1 43459U 26695ST  26070.40846065  .00000000  00000+0  00000-0 0  9990
2 43459  40.0000  24.0000 0000000   0.0000 204.0000 13.72670257    14
CTC2_L_00300003-04
1 43460U 25690AL  26070.40846065  .00000000  00000+0  00000-0 0  9996
2 43460  40.0000  24.0000 0000000   0.0000 294.0000 13.72670257    15
CTC2_L_00300004-01
1 43461U 22913LL  26070.40846065  .00000000  00000+0  00000-0 0  9992
2 43461  40.0000  36.0000 0000000   0.0000  36.0000 13.72670257    13
CTC2_L_00300004-02
1 43462U 23661QT  26070.40846065  .00000000  00000+0  00000-0 0  9994
2 43462  40.0000  36.0000 0000000   0.0000 126.0000 13.72670257    14
CTC2_L_00300004-03
1 43463U 24845UF  26070.40846065  .00000000  00000+0  00000-0 0  9990
2 43463  40.0000  36.0000 0000000   0.0000 216.0000 13.72670257    15
CTC2_L_00300004-04
1 43464U 24363OK  26070.40846065  .00000000  00000+0  00000-0 0  9996
2 43464  40.0000  36.0000 0000000   0.0000 306.0000 13.72670257    16
CTC2_L_00300005-01
1 43465U 23874AJ  26070.40846065  .00000000  00000+0  00000-0 0  9993
2 43465  40.0000  48.0000 0000000   0.0000  48.0000 13.72670257    13
CTC2_L_00300005-02
1 43466U 26795QJ  26070.40846065  .00000000  00000+0  00000-0 0  9999
2 43466  40.0000  48.0000 0000000   0.0000 138.0000 13.72670257    14
CTC2_L_00300005-03
1 43467U 26603EB  26070.40846065  .00000000  00000+0  00000-0 0  9998
2 43467  40.0000  48.0000 0000000   0.0000 228.0000 13.72670257    15
CTC2_L_00300005-04
1 43468U 25151QU  26070.40846065  .00000000  00000+0  00000-0 0  9996
2 43468  40.0000  48.0000 0000000   0.0000 318.0000 13.72670257    16
CTC2_L_00300006-01
1 43469U 25392Z   26070.40846065  .00000000  00000+0  00000-0 0  9994
2 43469  40.0000  60.0000 0000000   0.0000  60.0000 13.72670257    15
CTC2_L_00300006-02
1 43470U 22311QA  26070.40846065  .00000000  00000+0  00000-0 0  9994
2 43470  40.0000  60.0000 0000000   0.0000 150.0000 13.72670257    17
CTC2_L_00300006-03
1 43471U 25936HB  26070.40846065  .00000000  00000+0  00000-0 0  9991
2 43471  40.0000  60.0000 0000000   0.0000 240.0000 13.72670257    18
CTC2_L_00300006-04
1 43472U 23230CF  26070.40846065  .00000000  00000+0  00000-0 0  9997
2 43472  40.0000  60.0000 0000000   0.0000 330.0000 13.72670257    19
CTC2_L_00300007-01
1 43473U 22245XH  26070.40846065  .00000000  00000+0  00000-0 0  9993
2 43473  40.0000  72.0000 0000000   0.0000  72.0000 13.72670257    16
CTC2_L_00300007-02
1 43474U 22576UP  26070.40846065  .00000000  00000+0  00000-0 0  9991
2 43474  40.0000  72.0000 0000000   0.0000 162.0000 13.72670257    17
CTC2_L_00300007-03
1 43475U 22258JT  26070.40846065  .00000000  00000+0  00000-0 0  9999
2 43475  40.0000  72.0000 0000000   0.0000 252.0000 13.72670257    18
CTC2_L_00300007-04
1 43476U 22268GK  26070.40846065  .00000000  00000+0  00000-0 0  9991
2 43476  40.0000  72.0000 0000000   0.0000 342.0000 13.72670257    19
CTC2_L_00300008-01
1 43477U 24091QH  26070.40846065  .00000000  00000+0  00000-0 0  9998
2 43477  40.0000  84.0000 0000000   0.0000  84.0000 13.72670257    16
CTC2_L_00300008-02
1 43478U 24241PN  26070.40846065  .00000000  00000+0  00000-0 0  9996
2 43478  40.0000  84.0000 0000000   0.0000 174.0000 13.72670257    17
CTC2_L_00300008-03
1 43479U 25007PX  26070.40846065  .00000000  00000+0  00000-0 0  9998
2 43479  40.0000  84.0000 0000000   0.0000 264.0000 13.72670257    18
CTC2_L_00300008-04
1 43480U 24711WL  26070.40846065  .00000000  00000+0  00000-0 0  9991
2 43480  40.0000  84.0000 0000000   0.0000 354.0000 13.72670257    10
CTC2_L_00300009-01
1 43481U 24689LI  26070.40846065  .00000000  00000+0  00000-0 0  9996
2 43481  40.0000  96.0000 0000000   0.0000  96.0000 13.72670257    17
CTC2_L_00300009-02
1 43482U 22742RM  26070.40846065  .00000000  00000+0  00000-0 0  9995
2 43482  40.0000  96.0000 0000000   0.0000 186.0000 13.72670257    18
CTC2_L_00300009-03
1 43483U 22764FF  26070.40846065  .00000000  00000+0  00000-0 0  9990
2 43483  40.0000  96.0000 0000000   0.0000 276.0000 13.72670257    19
CTC2_L_00300009-04
1 43484U 23910ZW  26070.40846065  .00000000  00000+0  00000-0 0  9995
2 43484  40.0000  96.0000 0000000   0.0000   6.0000 13.72670257    11
CTC2_L_00300010-01
1 43485U 26893WU  26070.40846065  .00000000  00000+0  00000-0 0  9999
2 43485  40.0000 108.0000 0000000   0.0000 108.0000 13.72670257    19
CTC2_L_00300010-02
1 43486U 25437VQ  26070.40846065  .00000000  00000+0  00000-0 0  9993
2 43486  40.0000 108.0000 0000000   0.0000 198.0000 13.72670257    19
CTC2_L_00300010-03
1 43487U 24174CL  26070.40846065  .00000000  00000+0  00000-0 0  9991
2 43487  40.0000 108.0000 0000000   0.0000 288.0000 13.72670257    10
CTC2_L_00300010-04
1 43488U 23124WX  26070.40846065  .00000000  00000+0  00000-0 0  9996
2 43488  40.0000 108.0000 0000000   0.0000  18.0000 13.72670257    12
CTC2_L_00300011-01
1 43489U 22903XA  26070.40846065  .00000000  00000+0  00000-0 0  9991
2 43489  40.0000 120.0000 0000000   0.0000 120.0000 13.72670257    11
CTC2_L_00300011-02
1 43490U 26692PP  26070.40846065  .00000000  00000+0  00000-0 0  9992
2 43490  40.0000 120.0000 0000000   0.0000 210.0000 13.72670257    13
CTC2_L_00300011-03
1 43491U 25265HU  26070.40846065  .00000000  00000+0  00000-0 0  9998
2 43491  40.0000 120.0000 0000000   0.0000 300.0000 13.72670257    14
CTC2_L_00300011-04
1 43492U 24713IO  26070.40846065  .00000000  00000+0  00000-0 0  9996
2 43492  40.0000 120.0000 0000000   0.0000  30.0000 13.72670257    15
CTC2_L_00300012-01
1 43493U 23671ZT  26070.40846065  .00000000  00000+0  00000-0 0  9999
2 43493  40.0000 132.0000 0000000   0.0000 132.0000 13.72670257    12
CTC2_L_00300012-02
1 43494U 22525IR  26070.40846065  .00000000  00000+0  00000-0 0  9997
2 43494  40.0000 132.0000 0000000   0.0000 222.0000 13.72670257    13
CTC2_L_00300012-03
1 43495U 23656JV  26070.40846065  .00000000  00000+0  00000-0 0  9994
2 43495  40.0000 132.0000 0000000   0.0000 312.0000 13.72670257    14
CTC2_L_00300012-04
1 43496U 24975EY  26070.40846065  .00000000  00000+0  00000-0 0  9990
2 43496  40.0000 132.0000 0000000   0.0000  42.0000 13.72670257    15
CTC2_L_00300013-01
1 43497U 22160PW  26070.40846065  .00000000  00000+0  00000-0 0  9995
2 43497  40.0000 144.0000 0000000   0.0000 144.0000 13.72670257    12
CTC2_L_00300013-02
1 43498U 26564WG  26070.40846065  .00000000  00000+0  00000-0 0  9998
2 43498  40.0000 144.0000 0000000   0.0000 234.0000 13.72670257    13
CTC2_L_00300013-03
1 43499U 26033SV  26070.40846065  .00000000  00000+0  00000-0 0  9990
2 43499  40.0000 144.0000 0000000   0.0000 324.0000 13.72670257    14
CTC2_L_00300013-04
1 43500U 22014SL  26070.40846065  .00000000  00000+0  00000-0 0  9998
2 43500  40.0000 144.0000 0000000   0.0000  54.0000 13.72670257    17
CTC2_L_00300014-01
1 43501U 23455NP  26070.40846065  .00000000  00000+0  00000-0 0  9999
2 43501  40.0000 156.0000 0000000   0.0000 156.0000 13.72670257    14
CTC2_L_00300014-02
1 43502U 26705KU  26070.40846065  .00000000  00000+0  00000-0 0  9991
2 43502  40.0000 156.0000 0000000   0.0000 246.0000 13.72670257    15
CTC2_L_00300014-03
1 43503U 22736GZ  26070.40846065  .00000000  00000+0  00000-0 0  9992
2 43503  40.0000 156.0000 0000000   0.0000 336.0000 13.72670257    16
CTC2_L_00300014-04
1 43504U 24058QQ  26070.40846065  .00000000  00000+0  00000-0 0  9992
2 43504  40.0000 156.0000 0000000   0.0000  66.0000 13.72670257    17
CTC2_L_00300015-01
1 43505U 25095HX  26070.40846065  .00000000  00000+0  00000-0 0  9995
2 43505  40.0000 168.0000 0000000   0.0000 168.0000 13.72670257    14
CTC2_L_00300015-02
1 43506U 22115RG  26070.40846065  .00000000  00000+0  00000-0 0  9996
2 43506  40.0000 168.0000 0000000   0.0000 258.0000 13.72670257    15
CTC2_L_00300015-03
1 43507U 25229EX  26070.40846065  .00000000  00000+0  00000-0 0  9996
2 43507  40.0000 168.0000 0000000   0.0000 348.0000 13.72670257    16
CTC2_L_00300015-04
1 43508U 23138AO  26070.40846065  .00000000  00000+0  00000-0 0  9994
2 43508  40.0000 168.0000 0000000   0.0000  78.0000 13.72670257    17
CTC2_L_00300016-01
1 43509U 22524UN  26070.40846065  .00000000  00000+0  00000-0 0  9993
2 43509  40.0000 180.0000 0000000   0.0000 180.0000 13.72670257    16
CTC2_L_00300016-02
1 43510U 25131FL  26070.40846065  .00000000  00000+0  00000-0 0  9992
2 43510  40.0000 180.0000 0000000   0.0000 270.0000 13.72670257    18
